[{"OBJECT_NAME":"GAOFEN-13 01","OBJECT_ID":"2020-071A","EPOCH":"2026-03-28T23:54:20.543904","MEAN_MOTION":1.00271388,"ECCENTRICITY":0.0042786,"INCLINATION":0.3145,"RA_OF_ASC_NODE":85.1188,"ARG_OF_PERICENTER":121.4765,"MEAN_ANOMALY":96.6379,"EPHEMERIS_TYPE":0,"CLASSIFICATION_TYPE":"U","NORAD_CAT_ID":46610,"ELEMENT_SET_NO":999,"REV_AT_EPOCH":2011,"BSTAR":0,"MEAN_MOTION_DOT":-3.82e-6,"MEAN_MOTION_DDOT":0},{"OBJECT_NAME":"TIANTONG-1 2","OBJECT_ID":"2020-082A","EPOCH":"2026-03-28T23:56:12.863904","MEAN_MOTION":1.00272917,"ECCENTRICITY":0.0002728,"INCLINATION":0.9095,"RA_OF_ASC_NODE":317.4344,"ARG_OF_PERICENTER":43.3815,"MEAN_ANOMALY":309.5798,"EPHEMERIS_TYPE":0,"CLASSIFICATION_TYPE":"U","NORAD_CAT_ID":46916,"ELEMENT_SET_NO":999,"REV_AT_EPOCH":1984,"BSTAR":0,"MEAN_MOTION_DOT":-3.76e-6,"MEAN_MOTION_DDOT":0},{"OBJECT_NAME":"LUCAS (JDRS-1)","OBJECT_ID":"2020-089A","EPOCH":"2026-03-29T01:29:03.958368","MEAN_MOTION":1.0027428,"ECCENTRICITY":0.0002696,"INCLINATION":0.0475,"RA_OF_ASC_NODE":269.6815,"ARG_OF_PERICENTER":86.7463,"MEAN_ANOMALY":303.0502,"EPHEMERIS_TYPE":0,"CLASSIFICATION_TYPE":"U","NORAD_CAT_ID":47202,"ELEMENT_SET_NO":999,"REV_AT_EPOCH":1961,"BSTAR":0,"MEAN_MOTION_DOT":-2.55e-6,"MEAN_MOTION_DDOT":0},{"OBJECT_NAME":"SXM-7","OBJECT_ID":"2020-096A","EPOCH":"2026-03-29T02:21:36.418752","MEAN_MOTION":1.0027184,"ECCENTRICITY":0.0004639,"INCLINATION":0.0219,"RA_OF_ASC_NODE":123.3646,"ARG_OF_PERICENTER":4.8384,"MEAN_ANOMALY":8.5327,"EPHEMERIS_TYPE":0,"CLASSIFICATION_TYPE":"U","NORAD_CAT_ID":47240,"ELEMENT_SET_NO":999,"REV_AT_EPOCH":664,"BSTAR":0,"MEAN_MOTION_DOT":-2.24e-6,"MEAN_MOTION_DDOT":0},{"OBJECT_NAME":"CMS-01","OBJECT_ID":"2020-099A","EPOCH":"2026-03-29T01:26:56.660928","MEAN_MOTION":1.002712,"ECCENTRICITY":0.0005775,"INCLINATION":0.0829,"RA_OF_ASC_NODE":93.7663,"ARG_OF_PERICENTER":198.9565,"MEAN_ANOMALY":358.4659,"EPHEMERIS_TYPE":0,"CLASSIFICATION_TYPE":"U","NORAD_CAT_ID":47256,"ELEMENT_SET_NO":999,"REV_AT_EPOCH":1939,"BSTAR":0,"MEAN_MOTION_DOT":-1.84e-6,"MEAN_MOTION_DDOT":0},{"OBJECT_NAME":"TURKSAT 5A","OBJECT_ID":"2021-001A","EPOCH":"2026-03-29T02:54:45.516096","MEAN_MOTION":1.00270383,"ECCENTRICITY":2.22e-5,"INCLINATION":0.0149,"RA_OF_ASC_NODE":119.5645,"ARG_OF_PERICENTER":106.7751,"MEAN_ANOMALY":34.7761,"EPHEMERIS_TYPE":0,"CLASSIFICATION_TYPE":"U","NORAD_CAT_ID":47306,"ELEMENT_SET_NO":999,"REV_AT_EPOCH":1916,"BSTAR":0,"MEAN_MOTION_DOT":1.35e-6,"MEAN_MOTION_DDOT":0},{"OBJECT_NAME":"TIANTONG-1 3","OBJECT_ID":"2021-003A","EPOCH":"2026-03-29T04:00:02.672640","MEAN_MOTION":1.00270014,"ECCENTRICITY":0.0003309,"INCLINATION":1.8284,"RA_OF_ASC_NODE":334.5286,"ARG_OF_PERICENTER":29.4548,"MEAN_ANOMALY":324.1028,"EPHEMERIS_TYPE":0,"CLASSIFICATION_TYPE":"U","NORAD_CAT_ID":47321,"ELEMENT_SET_NO":999,"REV_AT_EPOCH":1915,"BSTAR":0,"MEAN_MOTION_DOT":-1.75e-6,"MEAN_MOTION_DDOT":0},{"OBJECT_NAME":"TJS-6","OBJECT_ID":"2021-010A","EPOCH":"2026-03-29T03:36:48.981888","MEAN_MOTION":1.00271466,"ECCENTRICITY":0.0003164,"INCLINATION":0.3937,"RA_OF_ASC_NODE":89.4083,"ARG_OF_PERICENTER":296.5966,"MEAN_ANOMALY":33.2099,"EPHEMERIS_TYPE":0,"CLASSIFICATION_TYPE":"U","NORAD_CAT_ID":47613,"ELEMENT_SET_NO":999,"REV_AT_EPOCH":1900,"BSTAR":0,"MEAN_MOTION_DOT":2.3e-7,"MEAN_MOTION_DDOT":0},{"OBJECT_NAME":"SHIYAN-9 (SY-9)","OBJECT_ID":"2021-019A","EPOCH":"2026-03-28T22:19:42.571776","MEAN_MOTION":1.00271422,"ECCENTRICITY":0.0015531,"INCLINATION":16.7031,"RA_OF_ASC_NODE":303.4769,"ARG_OF_PERICENTER":26.9457,"MEAN_ANOMALY":337.8125,"EPHEMERIS_TYPE":0,"CLASSIFICATION_TYPE":"U","NORAD_CAT_ID":47851,"ELEMENT_SET_NO":999,"REV_AT_EPOCH":2333,"BSTAR":0,"MEAN_MOTION_DOT":-2.47e-6,"MEAN_MOTION_DDOT":0},{"OBJECT_NAME":"SBIRS GEO-5 (USA 315)","OBJECT_ID":"2021-042A","EPOCH":"2026-03-29T01:29:56.374656","MEAN_MOTION":1.0027164,"ECCENTRICITY":0.000143,"INCLINATION":5.2063,"RA_OF_ASC_NODE":328.5219,"ARG_OF_PERICENTER":27.8472,"MEAN_ANOMALY":306.3579,"EPHEMERIS_TYPE":0,"CLASSIFICATION_TYPE":"U","NORAD_CAT_ID":48618,"ELEMENT_SET_NO":999,"REV_AT_EPOCH":1796,"BSTAR":0,"MEAN_MOTION_DOT":-2.91e-6,"MEAN_MOTION_DDOT":0},{"OBJECT_NAME":"FENGYUN 4B","OBJECT_ID":"2021-047A","EPOCH":"2026-03-29T01:33:03.575808","MEAN_MOTION":1.00267947,"ECCENTRICITY":0.0005994,"INCLINATION":0.0657,"RA_OF_ASC_NODE":293.647,"ARG_OF_PERICENTER":83.806,"MEAN_ANOMALY":297.0125,"EPHEMERIS_TYPE":0,"CLASSIFICATION_TYPE":"U","NORAD_CAT_ID":48808,"ELEMENT_SET_NO":999,"REV_AT_EPOCH":1776,"BSTAR":0,"MEAN_MOTION_DOT":-3.49e-6,"MEAN_MOTION_DDOT":0},{"OBJECT_NAME":"SXM-8","OBJECT_ID":"2021-049A","EPOCH":"2026-03-29T00:38:53.770272","MEAN_MOTION":1.00270176,"ECCENTRICITY":0.0004483,"INCLINATION":0.0468,"RA_OF_ASC_NODE":23.7737,"ARG_OF_PERICENTER":15.6885,"MEAN_ANOMALY":71.5279,"EPHEMERIS_TYPE":0,"CLASSIFICATION_TYPE":"U","NORAD_CAT_ID":48838,"ELEMENT_SET_NO":999,"REV_AT_EPOCH":1779,"BSTAR":0,"MEAN_MOTION_DOT":-2.24e-6,"MEAN_MOTION_DDOT":0},{"OBJECT_NAME":"TIANLIAN 1-05","OBJECT_ID":"2021-063A","EPOCH":"2026-03-29T04:33:21.059712","MEAN_MOTION":1.00272279,"ECCENTRICITY":0.0003816,"INCLINATION":1.388,"RA_OF_ASC_NODE":81.3112,"ARG_OF_PERICENTER":241.932,"MEAN_ANOMALY":308.4262,"EPHEMERIS_TYPE":0,"CLASSIFICATION_TYPE":"U","NORAD_CAT_ID":49011,"ELEMENT_SET_NO":999,"REV_AT_EPOCH":1727,"BSTAR":0,"MEAN_MOTION_DOT":9.0e-7,"MEAN_MOTION_DDOT":0},{"OBJECT_NAME":"STAR ONE D2","OBJECT_ID":"2021-069A","EPOCH":"2026-03-28T23:00:28.751040","MEAN_MOTION":1.00271565,"ECCENTRICITY":9.39e-5,"INCLINATION":0.0061,"RA_OF_ASC_NODE":172.5907,"ARG_OF_PERICENTER":204.7169,"MEAN_ANOMALY":84.1857,"EPHEMERIS_TYPE":0,"CLASSIFICATION_TYPE":"U","NORAD_CAT_ID":49055,"ELEMENT_SET_NO":999,"REV_AT_EPOCH":1713,"BSTAR":0,"MEAN_MOTION_DOT":-2.84e-6,"MEAN_MOTION_DDOT":0},{"OBJECT_NAME":"EUTELSAT QUANTUM","OBJECT_ID":"2021-069B","EPOCH":"2026-03-29T02:59:30.060672","MEAN_MOTION":1.00273446,"ECCENTRICITY":0.0002333,"INCLINATION":0.0422,"RA_OF_ASC_NODE":47.94,"ARG_OF_PERICENTER":317.1266,"MEAN_ANOMALY":274.0227,"EPHEMERIS_TYPE":0,"CLASSIFICATION_TYPE":"U","NORAD_CAT_ID":49056,"ELEMENT_SET_NO":999,"REV_AT_EPOCH":1712,"BSTAR":0,"MEAN_MOTION_DOT":1.06e-6,"MEAN_MOTION_DDOT":0},{"OBJECT_NAME":"ZHONGXING-2E","OBJECT_ID":"2021-071A","EPOCH":"2026-03-29T01:31:11.254944","MEAN_MOTION":1.00270003,"ECCENTRICITY":0.0001222,"INCLINATION":0.0378,"RA_OF_ASC_NODE":1.9623,"ARG_OF_PERICENTER":136.3092,"MEAN_ANOMALY":169.0359,"EPHEMERIS_TYPE":0,"CLASSIFICATION_TYPE":"U","NORAD_CAT_ID":49062,"ELEMENT_SET_NO":999,"REV_AT_EPOCH":1723,"BSTAR":0,"MEAN_MOTION_DOT":-3.1e-6,"MEAN_MOTION_DDOT":0},{"OBJECT_NAME":"TJS-7","OBJECT_ID":"2021-077A","EPOCH":"2026-03-29T05:18:06.179904","MEAN_MOTION":1.00271719,"ECCENTRICITY":0.0002028,"INCLINATION":0.3022,"RA_OF_ASC_NODE":87.1471,"ARG_OF_PERICENTER":279.4386,"MEAN_ANOMALY":160.0944,"EPHEMERIS_TYPE":0,"CLASSIFICATION_TYPE":"U","NORAD_CAT_ID":49115,"ELEMENT_SET_NO":999,"REV_AT_EPOCH":875,"BSTAR":0,"MEAN_MOTION_DOT":-1.43e-6,"MEAN_MOTION_DDOT":0}]
