GAOFEN-13 01            
1 46610U 20071A   26087.99607111 -.00000382  00000+0  00000+0 0  9996
2 46610   0.3145  85.1188 0042786 121.4765  96.6379  1.00271388 20110
TIANTONG-1 2            
1 46916U 20082A   26087.99737111 -.00000376  00000+0  00000+0 0  9994
2 46916   0.9095 317.4344 0002728  43.3815 309.5798  1.00272917 19842
LUCAS (JDRS-1)          
1 47202U 20089A   26088.06185137 -.00000255  00000+0  00000+0 0  9990
2 47202   0.0475 269.6815 0002696  86.7463 303.0502  1.00274280 19611
SXM-7                   
1 47240U 20096A   26088.09833818 -.00000224  00000+0  00000+0 0  9995
2 47240   0.0219 123.3646 0004639   4.8384   8.5327  1.00271840  6649
CMS-01                  
1 47256U 20099A   26088.06037802 -.00000184  00000+0  00000+0 0  9996
2 47256   0.0829  93.7663 0005775 198.9565 358.4659  1.00271200 19391
TURKSAT 5A              
1 47306U 21001A   26088.12136014  .00000135  00000+0  00000+0 0  9993
2 47306   0.0149 119.5645 0000222 106.7751  34.7761  1.00270383 19169
TIANTONG-1 3            
1 47321U 21003A   26088.16669760 -.00000175  00000+0  00000+0 0  9990
2 47321   1.8284 334.5286 0003309  29.4548 324.1028  1.00270014 19151
TJS-6                   
1 47613U 21010A   26088.15056692  .00000023  00000+0  00000+0 0  9996
2 47613   0.3937  89.4083 0003164 296.5966  33.2099  1.00271466 19007
SHIYAN-9 (SY-9)         
1 47851U 21019A   26087.93035384 -.00000247  00000+0  00000+0 0  9998
2 47851  16.7031 303.4769 0015531  26.9457 337.8125  1.00271422 23334
SBIRS GEO-5 (USA 315)   
1 48618U 21042A   26088.06245804 -.00000291  00000+0  00000+0 0  9990
2 48618   5.2063 328.5219 0001430  27.8472 306.3579  1.00271640 17960
FENGYUN 4B              
1 48808U 21047A   26088.06462472 -.00000349  00000+0  00000+0 0  9992
2 48808   0.0657 293.6470 0005994  83.8060 297.0125  1.00267947 17764
SXM-8                   
1 48838U 21049A   26088.02701123 -.00000224  00000+0  00000+0 0  9994
2 48838   0.0468  23.7737 0004483  15.6885  71.5279  1.00270176 17791
TIANLIAN 1-05           
1 49011U 21063A   26088.18982708  .00000090  00000+0  00000+0 0  9991
2 49011   1.3880  81.3112 0003816 241.9320 308.4262  1.00272279 17274
STAR ONE D2             
1 49055U 21069A   26087.95866610 -.00000284  00000+0  00000+0 0  9998
2 49055   0.0061 172.5907 0000939 204.7169  84.1857  1.00271565 17135
EUTELSAT QUANTUM        
1 49056U 21069B   26088.12465348  .00000106  00000+0  00000+0 0  9994
2 49056   0.0422  47.9400 0002333 317.1266 274.0227  1.00273446 17127
ZHONGXING-2E            
1 49062U 21071A   26088.06332471 -.00000310  00000+0  00000+0 0  9995
2 49062   0.0378   1.9623 0001222 136.3092 169.0359  1.00270003 17232
TJS-7                   
1 49115U 21077A   26088.22090486 -.00000143  00000+0  00000+0 0  9999
2 49115   0.3022  87.1471 0002028 279.4386 160.0944  1.00271719  8750
